OBJECT_NAME,OBJECT_ID,EPOCH,MEAN_MOTION,ECCENTRICITY,INCLINATION,RA_OF_ASC_NODE,ARG_OF_PERICENTER,MEAN_ANOMALY,EPHEMERIS_TYPE,CLASSIFICATION_TYPE,NORAD_CAT_ID,ELEMENT_SET_NO,REV_AT_EPOCH,BSTAR,MEAN_MOTION_DOT,MEAN_MOTION_DDOT
NIMIQ 2,2002-062A,2026-07-12T07:22:38.750880,1.00270146,.00052671,9.5016,56.6281,53.3577,181.6753,0,U,27632,999,4443,0,-.75E-6,0
USA 167,2003-008A,2026-07-12T05:44:38.620032,1.00270391,.00033233,11.0090,43.1794,309.3979,261.9864,0,U,27691,999,702,0,-.3E-7,0
USA 169 (MILSTAR-2 4),2003-012A,2026-07-11T21:07:25.667616,1.00273664,.00992455,12.3855,29.6356,10.1630,358.9712,0,U,27711,999,3320,0,-.202E-5,0
ASIASAT 4,2003-014A,2026-07-11T14:20:46.717152,1.00270582,.00029082,4.7645,75.4402,35.8393,180.9556,0,U,27718,999,4554,0,-.222E-5,0
HELLAS-SAT 2,2003-020A,2026-07-11T20:21:17.899776,1.00271348,.00034704,7.4132,67.5860,79.1889,78.2695,0,U,27811,999,4309,0,-.88E-6,0
THURAYA-2,2003-026A,2026-07-12T05:09:54.615744,1.00272666,.00025616,8.8771,31.8612,23.8744,355.8559,0,U,27825,999,8460,0,.12E-5,0
OPTUS C1,2003-028B,2026-07-11T14:40:59.915712,1.00269515,.00052012,6.9479,69.1103,39.1910,197.1867,0,U,27831,999,5330,0,-.154E-5,0
USA 170,2003-040A,2026-07-11T19:43:46.143840,1.00274052,.00017612,10.5501,47.7102,81.9616,120.2124,0,U,27875,999,3324,0,.121E-5,0
GALAXY 13 (HORIZONS-1),2003-044A,2026-07-12T06:00:38.767680,1.00269965,.00021642,1.4821,83.5453,24.6362,122.1149,0,U,27954,999,4682,0,.133E-5,0
YAMAL 202,2003-053A,2026-07-12T08:38:56.948640,1.00272162,.0003322,6.4037,70.6324,38.7225,114.1836,0,U,28089,999,8295,0,-.85E-6,0
UFO 11 (USA 174),2003-057A,2026-07-12T01:53:38.820192,1.00270283,.00026488,8.9538,33.7024,90.2980,269.9767,0,U,28117,999,8269,0,-.108E-5,0
USA 176 (DSP 22),2004-004A,2026-07-12T00:42:00.046944,1.00266820,.00011035,12.0948,25.8814,285.8583,299.3115,0,U,28158,999,3318,0,-.302E-5,0
ABS-4 (MOBISAT-1),2004-007A,2026-07-12T05:14:46.650336,1.00272653,.00046012,6.1026,71.7020,40.5894,317.4536,0,U,28184,999,5258,0,.35E-6,0
INTELSAT 10-02,2004-022A,2026-07-11T23:49:12.660096,1.00270427,.00005927,0.0519,255.9518,328.8445,61.3886,0,U,28358,999,8080,0,-.8E-7,0
ANIK F2,2004-027A,2026-07-12T07:22:38.750880,1.00271169,.00035554,3.3498,79.1103,30.8886,179.7367,0,U,28378,999,4151,0,-.51E-6,0
AMC-15,2004-041A,2026-07-12T07:22:38.750880,1.00271234,.00022643,0.0346,304.3045,184.5757,166.9270,0,U,28446,999,7955,0,-.87E-6,0
NSS-10,2005-003A,2026-07-12T04:53:40.735680,1.00270905,.00025775,6.5097,70.1454,38.0995,217.8253,0,U,28526,999,5340,0,-.256E-5,0
INMARSAT 4-F1,2005-009A,2026-07-11T17:49:37.578720,1.00270973,.00024991,5.2002,42.7797,72.5823,259.7934,0,U,28628,999,7791,0,.32E-6,0
DIRECTV 8,2005-019A,2026-07-12T05:36:38.949696,1.00271120,.00030294,0.0205,76.1722,49.8366,129.2280,0,U,28659,999,7732,0,.4E-7,0
GALAXY 28 (G-28),2005-022A,2026-07-12T04:49:41.553696,1.00270916,.00023131,3.3610,78.6270,30.1375,226.6470,0,U,28702,999,5222,0,-.201E-5,0
THAICOM 4,2005-028A,2026-07-12T05:31:30.047232,1.00269994,.0001464,0.3075,85.5470,5.6346,41.3098,0,U,28786,999,5250,0,-.36E-5,0
ANIK F1R,2005-036A,2026-07-12T07:22:38.750880,1.00271313,.00037192,4.3742,76.2671,27.0862,190.2084,0,U,28868,999,4670,0,-.78E-6,0
SYRACUSE 3A,2005-041B,2026-07-12T05:10:39.544608,1.00272810,.00027362,4.7039,75.5324,30.1462,308.7237,0,U,28885,999,7599,0,.126E-5,0
INMARSAT 4-F2,2005-044A,2026-07-12T07:20:59.049600,1.00270977,.00027824,5.1267,43.6546,60.2655,80.0209,0,U,28899,999,7577,0,-.263E-5,0
METEOSAT-9 (MSG-2),2005-049B,2026-07-12T05:10:24.568896,1.00270590,.0002045,9.4157,53.9162,356.7107,2.7516,0,U,28912,999,724,0,.118E-5,0
EUTELSAT 174A,2005-052A,2026-07-11T14:50:49.830720,1.00270269,.00057839,4.2778,76.2239,36.7704,213.1891,0,U,28924,999,5257,0,.9E-7,0
ECHOSTAR 10,2006-003A,2026-07-12T07:22:38.750880,1.00270606,.0001085,0.0365,306.1335,140.1549,204.3954,0,U,28935,999,7471,0,-.53E-6,0
SPAINSAT,2006-007A,2026-07-12T06:40:13.100160,1.00270006,.00046061,0.6256,86.1044,24.6291,249.3073,0,U,28945,999,7446,0,-.216E-5,0
JCSAT-5A,2006-010A,2026-07-12T07:17:44.361024,1.00270634,.00016433,1.1717,83.9360,23.2176,64.5175,0,U,29045,999,7402,0,-.327E-5,0
ASTRA 1KR,2006-012A,2026-07-12T05:02:47.798016,1.00269013,.00032975,0.5359,83.1799,20.1907,281.4420,0,U,29055,999,4594,0,.12E-5,0
GALAXY 16 (G-16),2006-023A,2026-07-12T07:14:38.791104,1.00271226,.00024434,0.0367,112.5847,8.6264,178.6450,0,U,29236,999,7322,0,-.125E-5,0
EUTELSAT 33F,2006-032A,2026-07-12T05:06:47.416320,1.00270162,.00033827,1.7237,81.9640,26.2744,291.6306,0,U,29270,999,4755,0,.156E-5,0
